BANDWAGON-2 OBJECT D    
1 62380U 24247D   26068.52261193  .00011259  00000+0  40119-3 0  9994
2 62380  44.9954 115.6710 0003488 351.1453   8.9368 15.29076102 67732
STARLINK-33920          
1 63710U 25087P   26068.73652754  .00034404  00000+0  11689-2 0  9991
2 63710  53.1604 219.5619 0001126  92.9657 267.1473 15.30184246 49208
